{"fetchedAt":"2026-06-29T18:07:57.466Z","satellites":[{"id":"49095","name":"ONEWEB-0309","constellationId":"oneweb","omm":{"OBJECT_NAME":"ONEWEB-0309","OBJECT_ID":"2021-075W","EPOCH":"2026-06-29T13:01:17.465664","MEAN_MOTION":13.1764958,"ECCENTRICITY":0.0002242,"INCLINATION":87.9131,"RA_OF_ASC_NODE":3.4045,"ARG_OF_PERICENTER":99.483,"MEAN_ANOMALY":260.6555,"EPHEMERIS_TYPE":0,"CLASSIFICATION_TYPE":"U","NORAD_CAT_ID":49095,"ELEMENT_SET_NO":999,"REV_AT_EPOCH":23520,"BSTAR":0.00010589,"MEAN_MOTION_DOT":5.4e-7,"MEAN_MOTION_DDOT":0}},{"id":"49096","name":"ONEWEB-0310","constellationId":"oneweb","omm":{"OBJECT_NAME":"ONEWEB-0310","OBJECT_ID":"2021-075X","EPOCH":"2026-06-29T12:14:06.288000","MEAN_MOTION":13.12443852,"ECCENTRICITY":0.0001847,"INCLINATION":87.8944,"RA_OF_ASC_NODE":348.2287,"ARG_OF_PERICENTER":93.7501,"MEAN_ANOMALY":266.3839,"EPHEMERIS_TYPE":0,"CLASSIFICATION_TYPE":"U","NORAD_CAT_ID":49096,"ELEMENT_SET_NO":999,"REV_AT_EPOCH":23680,"BSTAR":-0.0001753,"MEAN_MOTION_DOT":-5e-7,"MEAN_MOTION_DDOT":0}},{"id":"49097","name":"ONEWEB-0311","constellationId":"oneweb","omm":{"OBJECT_NAME":"ONEWEB-0311","OBJECT_ID":"2021-075Y","EPOCH":"2026-06-29T13:10:59.725632","MEAN_MOTION":13.17650945,"ECCENTRICITY":0.0002066,"INCLINATION":87.9133,"RA_OF_ASC_NODE":3.403,"ARG_OF_PERICENTER":78.3425,"MEAN_ANOMALY":281.7939,"EPHEMERIS_TYPE":0,"CLASSIFICATION_TYPE":"U","NORAD_CAT_ID":49097,"ELEMENT_SET_NO":999,"REV_AT_EPOCH":23525,"BSTAR":0.000077396,"MEAN_MOTION_DOT":4.3e-7,"MEAN_MOTION_DDOT":0}},{"id":"49098","name":"ONEWEB-0312","constellationId":"oneweb","omm":{"OBJECT_NAME":"ONEWEB-0312","OBJECT_ID":"2021-075Z","EPOCH":"2026-06-29T11:43:31.240992","MEAN_MOTION":13.17647748,"ECCENTRICITY":0.0002167,"INCLINATION":87.913,"RA_OF_ASC_NODE":3.4256,"ARG_OF_PERICENTER":87.7188,"MEAN_ANOMALY":272.4191,"EPHEMERIS_TYPE":0,"CLASSIFICATION_TYPE":"U","NORAD_CAT_ID":49098,"ELEMENT_SET_NO":999,"REV_AT_EPOCH":23522,"BSTAR":0.000185,"MEAN_MOTION_DOT":8.5e-7,"MEAN_MOTION_DDOT":0}},{"id":"49099","name":"ONEWEB-0313","constellationId":"oneweb","omm":{"OBJECT_NAME":"ONEWEB-0313","OBJECT_ID":"2021-075AA","EPOCH":"2026-06-29T11:50:37.389120","MEAN_MOTION":13.17649174,"ECCENTRICITY":0.0001933,"INCLINATION":87.9128,"RA_OF_ASC_NODE":3.4299,"ARG_OF_PERICENTER":86.2221,"MEAN_ANOMALY":273.9132,"EPHEMERIS_TYPE":0,"CLASSIFICATION_TYPE":"U","NORAD_CAT_ID":49099,"ELEMENT_SET_NO":999,"REV_AT_EPOCH":23521,"BSTAR":0.00012451,"MEAN_MOTION_DOT":6.1e-7,"MEAN_MOTION_DDOT":0}},{"id":"49100","name":"ONEWEB-0314","constellationId":"oneweb","omm":{"OBJECT_NAME":"ONEWEB-0314","OBJECT_ID":"2021-075AB","EPOCH":"2026-06-29T12:51:34.742592","MEAN_MOTION":13.1765,"ECCENTRICITY":0.0002241,"INCLINATION":87.9142,"RA_OF_ASC_NODE":3.3958,"ARG_OF_PERICENTER":86.399,"MEAN_ANOMALY":273.7398,"EPHEMERIS_TYPE":0,"CLASSIFICATION_TYPE":"U","NORAD_CAT_ID":49100,"ELEMENT_SET_NO":999,"REV_AT_EPOCH":23519,"BSTAR":-0.000010821,"MEAN_MOTION_DOT":9e-8,"MEAN_MOTION_DDOT":0}},{"id":"49101","name":"ONEWEB-0315","constellationId":"oneweb","omm":{"OBJECT_NAME":"ONEWEB-0315","OBJECT_ID":"2021-075AC","EPOCH":"2026-06-29T11:35:03.698016","MEAN_MOTION":13.12441259,"ECCENTRICITY":0.0001882,"INCLINATION":87.8954,"RA_OF_ASC_NODE":348.1989,"ARG_OF_PERICENTER":81.1006,"MEAN_ANOMALY":279.0335,"EPHEMERIS_TYPE":0,"CLASSIFICATION_TYPE":"U","NORAD_CAT_ID":49101,"ELEMENT_SET_NO":999,"REV_AT_EPOCH":23678,"BSTAR":-0.000623,"MEAN_MOTION_DOT":-0.00000211,"MEAN_MOTION_DDOT":0}},{"id":"49102","name":"ONEWEB-0316","constellationId":"oneweb","omm":{"OBJECT_NAME":"ONEWEB-0316","OBJECT_ID":"2021-075AD","EPOCH":"2026-06-29T10:49:08.911776","MEAN_MOTION":13.18675545,"ECCENTRICITY":0.0001843,"INCLINATION":87.9177,"RA_OF_ASC_NODE":333.0159,"ARG_OF_PERICENTER":96.1094,"MEAN_ANOMALY":264.0248,"EPHEMERIS_TYPE":0,"CLASSIFICATION_TYPE":"U","NORAD_CAT_ID":49102,"ELEMENT_SET_NO":999,"REV_AT_EPOCH":23882,"BSTAR":0.00015473,"MEAN_MOTION_DOT":7.4e-7,"MEAN_MOTION_DDOT":0}},{"id":"49103","name":"ONEWEB-0317","constellationId":"oneweb","omm":{"OBJECT_NAME":"ONEWEB-0317","OBJECT_ID":"2021-075AE","EPOCH":"2026-06-29T11:39:56.410848","MEAN_MOTION":13.12441502,"ECCENTRICITY":0.0002012,"INCLINATION":87.8956,"RA_OF_ASC_NODE":348.2223,"ARG_OF_PERICENTER":114.3055,"MEAN_ANOMALY":245.8283,"EPHEMERIS_TYPE":0,"CLASSIFICATION_TYPE":"U","NORAD_CAT_ID":49103,"ELEMENT_SET_NO":999,"REV_AT_EPOCH":23680,"BSTAR":-0.00084435,"MEAN_MOTION_DOT":-0.00000291,"MEAN_MOTION_DDOT":0}},{"id":"49104","name":"ONEWEB-0318","constellationId":"oneweb","omm":{"OBJECT_NAME":"ONEWEB-0318","OBJECT_ID":"2021-075AF","EPOCH":"2026-06-28T21:59:28.312224","MEAN_MOTION":13.18678792,"ECCENTRICITY":0.0001889,"INCLINATION":87.9178,"RA_OF_ASC_NODE":333.1238,"ARG_OF_PERICENTER":89.1631,"MEAN_ANOMALY":270.9718,"EPHEMERIS_TYPE":0,"CLASSIFICATION_TYPE":"U","NORAD_CAT_ID":49104,"ELEMENT_SET_NO":999,"REV_AT_EPOCH":23871,"BSTAR":0.0036313141,"MEAN_MOTION_DOT":0.00001445,"MEAN_MOTION_DDOT":0}},{"id":"49105","name":"ONEWEB-0319","constellationId":"oneweb","omm":{"OBJECT_NAME":"ONEWEB-0319","OBJECT_ID":"2021-075AG","EPOCH":"2026-06-29T13:13:26.027616","MEAN_MOTION":13.17650031,"ECCENTRICITY":0.0001922,"INCLINATION":87.9131,"RA_OF_ASC_NODE":3.4079,"ARG_OF_PERICENTER":73.7074,"MEAN_ANOMALY":286.4269,"EPHEMERIS_TYPE":0,"CLASSIFICATION_TYPE":"U","NORAD_CAT_ID":49105,"ELEMENT_SET_NO":999,"REV_AT_EPOCH":23523,"BSTAR":0.000074215,"MEAN_MOTION_DOT":4.2e-7,"MEAN_MOTION_DDOT":0}},{"id":"49106","name":"ONEWEB-0323","constellationId":"oneweb","omm":{"OBJECT_NAME":"ONEWEB-0323","OBJECT_ID":"2021-075AH","EPOCH":"2026-06-29T11:13:07.114080","MEAN_MOTION":13.12440865,"ECCENTRICITY":0.0002059,"INCLINATION":87.8955,"RA_OF_ASC_NODE":348.2072,"ARG_OF_PERICENTER":78.0757,"MEAN_ANOMALY":282.0602,"EPHEMERIS_TYPE":0,"CLASSIFICATION_TYPE":"U","NORAD_CAT_ID":49106,"ELEMENT_SET_NO":999,"REV_AT_EPOCH":23616,"BSTAR":0.00079145,"MEAN_MOTION_DOT":0.00000297,"MEAN_MOTION_DDOT":0}},{"id":"49107","name":"ONEWEB-0329","constellationId":"oneweb","omm":{"OBJECT_NAME":"ONEWEB-0329","OBJECT_ID":"2021-075AJ","EPOCH":"2026-06-29T11:36:14.361984","MEAN_MOTION":13.17650174,"ECCENTRICITY":0.0002002,"INCLINATION":87.9131,"RA_OF_ASC_NODE":3.4221,"ARG_OF_PERICENTER":88.0609,"MEAN_ANOMALY":272.0751,"EPHEMERIS_TYPE":0,"CLASSIFICATION_TYPE":"U","NORAD_CAT_ID":49107,"ELEMENT_SET_NO":999,"REV_AT_EPOCH":23520,"BSTAR":0.0003011,"MEAN_MOTION_DOT":0.0000013,"MEAN_MOTION_DDOT":0}},{"id":"49108","name":"ONEWEB-0330","constellationId":"oneweb","omm":{"OBJECT_NAME":"ONEWEB-0330","OBJECT_ID":"2021-075AK","EPOCH":"2026-06-29T11:53:11.635584","MEAN_MOTION":13.19183655,"ECCENTRICITY":0.0002097,"INCLINATION":87.9134,"RA_OF_ASC_NODE":3.4347,"ARG_OF_PERICENTER":91.5766,"MEAN_ANOMALY":268.5607,"EPHEMERIS_TYPE":0,"CLASSIFICATION_TYPE":"U","NORAD_CAT_ID":49108,"ELEMENT_SET_NO":999,"REV_AT_EPOCH":23524,"BSTAR":0.0000076142,"MEAN_MOTION_DOT":1.6e-7,"MEAN_MOTION_DDOT":0}},{"id":"49186","name":"ONEWEB-0292","constellationId":"oneweb","omm":{"OBJECT_NAME":"ONEWEB-0292","OBJECT_ID":"2021-083A","EPOCH":"2026-06-29T08:29:42.741024","MEAN_MOTION":13.13469375,"ECCENTRICITY":0.0001848,"INCLINATION":87.8963,"RA_OF_ASC_NODE":317.8156,"ARG_OF_PERICENTER":93.3357,"MEAN_ANOMALY":266.7983,"EPHEMERIS_TYPE":0,"CLASSIFICATION_TYPE":"U","NORAD_CAT_ID":49186,"ELEMENT_SET_NO":999,"REV_AT_EPOCH":23252,"BSTAR":0.00031277,"MEAN_MOTION_DOT":0.00000127,"MEAN_MOTION_DDOT":0}}]}